[{"OBJECT_NAME":"ONEWEB-0559","OBJECT_ID":"2023-043Q","EPOCH":"2025-12-10T06:24:32.355360","MEAN_MOTION":13.21824423,"ECCENTRICITY":0.00020347,"INCLINATION":87.9216,"RA_OF_ASC_NODE":281.6585,"ARG_OF_PERICENTER":72.6587,"MEAN_ANOMALY":287.477,"EPHEMERIS_TYPE":0,"CLASSIFICATION_TYPE":"U","NORAD_CAT_ID":56060,"ELEMENT_SET_NO":999,"REV_AT_EPOCH":13329,"BSTAR":0.00027690016,"MEAN_MOTION_DOT":1.27e-6,"MEAN_MOTION_DDOT":0},{"OBJECT_NAME":"ONEWEB-0566","OBJECT_ID":"2023-043R","EPOCH":"2025-12-09T13:54:03.280032","MEAN_MOTION":13.21825044,"ECCENTRICITY":0.0002001,"INCLINATION":87.9217,"RA_OF_ASC_NODE":281.7939,"ARG_OF_PERICENTER":69.1539,"MEAN_ANOMALY":290.9809,"EPHEMERIS_TYPE":0,"CLASSIFICATION_TYPE":"U","NORAD_CAT_ID":56061,"ELEMENT_SET_NO":999,"REV_AT_EPOCH":13318,"BSTAR":0.00020542,"MEAN_MOTION_DOT":9.8e-7,"MEAN_MOTION_DDOT":0},{"OBJECT_NAME":"ONEWEB-0568","OBJECT_ID":"2023-043S","EPOCH":"2025-12-10T07:27:05.882400","MEAN_MOTION":13.16595254,"ECCENTRICITY":0.00014224,"INCLINATION":87.9046,"RA_OF_ASC_NODE":266.3785,"ARG_OF_PERICENTER":77.9772,"MEAN_ANOMALY":282.1518,"EPHEMERIS_TYPE":0,"CLASSIFICATION_TYPE":"U","NORAD_CAT_ID":56062,"ELEMENT_SET_NO":999,"REV_AT_EPOCH":13412,"BSTAR":0.00047819684,"MEAN_MOTION_DOT":1.96e-6,"MEAN_MOTION_DDOT":0},{"OBJECT_NAME":"ONEWEB-0574","OBJECT_ID":"2023-043T","EPOCH":"2025-12-10T06:05:36.948768","MEAN_MOTION":13.21825457,"ECCENTRICITY":0.00018609,"INCLINATION":87.9217,"RA_OF_ASC_NODE":281.6472,"ARG_OF_PERICENTER":82.9034,"MEAN_ANOMALY":277.2312,"EPHEMERIS_TYPE":0,"CLASSIFICATION_TYPE":"U","NORAD_CAT_ID":56063,"ELEMENT_SET_NO":999,"REV_AT_EPOCH":13331,"BSTAR":0.0003183828,"MEAN_MOTION_DOT":1.45e-6,"MEAN_MOTION_DDOT":0},{"OBJECT_NAME":"ONEWEB-0575","OBJECT_ID":"2023-043U","EPOCH":"2025-12-10T05:28:32.677536","MEAN_MOTION":13.1659569,"ECCENTRICITY":0.00016394,"INCLINATION":87.9043,"RA_OF_ASC_NODE":266.3953,"ARG_OF_PERICENTER":88.9332,"MEAN_ANOMALY":271.1987,"EPHEMERIS_TYPE":0,"CLASSIFICATION_TYPE":"U","NORAD_CAT_ID":56064,"ELEMENT_SET_NO":999,"REV_AT_EPOCH":13410,"BSTAR":0.00045237877,"MEAN_MOTION_DOT":1.86e-6,"MEAN_MOTION_DDOT":0},{"OBJECT_NAME":"ONEWEB-0576","OBJECT_ID":"2023-043V","EPOCH":"2025-12-10T05:01:11.045568","MEAN_MOTION":13.165942,"ECCENTRICITY":0.00016754,"INCLINATION":87.9049,"RA_OF_ASC_NODE":266.3996,"ARG_OF_PERICENTER":82.8377,"MEAN_ANOMALY":277.2944,"EPHEMERIS_TYPE":0,"CLASSIFICATION_TYPE":"U","NORAD_CAT_ID":56065,"ELEMENT_SET_NO":999,"REV_AT_EPOCH":13409,"BSTAR":0.00010980011,"MEAN_MOTION_DOT":5.5e-7,"MEAN_MOTION_DDOT":0},{"OBJECT_NAME":"ONEWEB-0577","OBJECT_ID":"2023-043W","EPOCH":"2025-12-10T05:10:18.005088","MEAN_MOTION":13.16594436,"ECCENTRICITY":0.00020058,"INCLINATION":87.9047,"RA_OF_ASC_NODE":266.3976,"ARG_OF_PERICENTER":98.4827,"MEAN_ANOMALY":261.6532,"EPHEMERIS_TYPE":0,"CLASSIFICATION_TYPE":"U","NORAD_CAT_ID":56066,"ELEMENT_SET_NO":999,"REV_AT_EPOCH":13412,"BSTAR":0.00024991517,"MEAN_MOTION_DOT":1.08e-6,"MEAN_MOTION_DDOT":0},{"OBJECT_NAME":"ONEWEB-0578","OBJECT_ID":"2023-043X","EPOCH":"2025-12-10T05:46:38.419680","MEAN_MOTION":13.2182802,"ECCENTRICITY":0.00015427,"INCLINATION":87.9219,"RA_OF_ASC_NODE":281.6601,"ARG_OF_PERICENTER":79.5263,"MEAN_ANOMALY":280.6045,"EPHEMERIS_TYPE":0,"CLASSIFICATION_TYPE":"U","NORAD_CAT_ID":56067,"ELEMENT_SET_NO":999,"REV_AT_EPOCH":13327,"BSTAR":0.00039283747,"MEAN_MOTION_DOT":1.75e-6,"MEAN_MOTION_DDOT":0},{"OBJECT_NAME":"ONEWEB-0579","OBJECT_ID":"2023-043Y","EPOCH":"2025-12-10T07:21:26.688096","MEAN_MOTION":13.21821177,"ECCENTRICITY":0.00024334,"INCLINATION":87.9207,"RA_OF_ASC_NODE":281.6368,"ARG_OF_PERICENTER":71.5569,"MEAN_ANOMALY":288.583,"EPHEMERIS_TYPE":0,"CLASSIFICATION_TYPE":"U","NORAD_CAT_ID":56068,"ELEMENT_SET_NO":999,"REV_AT_EPOCH":13329,"BSTAR":0.0038426015,"MEAN_MOTION_DOT":1.6e-5,"MEAN_MOTION_DDOT":0},{"OBJECT_NAME":"ONEWEB-0581","OBJECT_ID":"2023-043Z","EPOCH":"2025-12-10T07:08:51.779328","MEAN_MOTION":13.16595099,"ECCENTRICITY":0.00019367,"INCLINATION":87.9043,"RA_OF_ASC_NODE":266.395,"ARG_OF_PERICENTER":86.686,"MEAN_ANOMALY":273.4493,"EPHEMERIS_TYPE":0,"CLASSIFICATION_TYPE":"U","NORAD_CAT_ID":56069,"ELEMENT_SET_NO":999,"REV_AT_EPOCH":13410,"BSTAR":8.9619454e-5,"MEAN_MOTION_DOT":4.7e-7,"MEAN_MOTION_DDOT":0},{"OBJECT_NAME":"ONEWEB-0609","OBJECT_ID":"2023-043AA","EPOCH":"2025-12-10T06:10:36.115680","MEAN_MOTION":13.15548812,"ECCENTRICITY":0.00017877,"INCLINATION":87.8994,"RA_OF_ASC_NODE":296.9172,"ARG_OF_PERICENTER":76.3348,"MEAN_ANOMALY":283.7981,"EPHEMERIS_TYPE":0,"CLASSIFICATION_TYPE":"U","NORAD_CAT_ID":56070,"ELEMENT_SET_NO":999,"REV_AT_EPOCH":13159,"BSTAR":0.00045803764,"MEAN_MOTION_DOT":1.85e-6,"MEAN_MOTION_DDOT":0},{"OBJECT_NAME":"ONEWEB-0613","OBJECT_ID":"2023-043AB","EPOCH":"2025-12-10T06:03:45.203328","MEAN_MOTION":13.15549356,"ECCENTRICITY":0.00019808,"INCLINATION":87.8991,"RA_OF_ASC_NODE":296.9304,"ARG_OF_PERICENTER":73.3839,"MEAN_ANOMALY":286.7509,"EPHEMERIS_TYPE":0,"CLASSIFICATION_TYPE":"U","NORAD_CAT_ID":56071,"ELEMENT_SET_NO":999,"REV_AT_EPOCH":13159,"BSTAR":0.00018468046,"MEAN_MOTION_DOT":8.2e-7,"MEAN_MOTION_DDOT":0},{"OBJECT_NAME":"ONEWEB-0630","OBJECT_ID":"2023-043AC","EPOCH":"2025-12-10T05:56:54.151872","MEAN_MOTION":13.15549514,"ECCENTRICITY":0.00020321,"INCLINATION":87.8989,"RA_OF_ASC_NODE":296.9028,"ARG_OF_PERICENTER":73.9681,"MEAN_ANOMALY":286.1673,"EPHEMERIS_TYPE":0,"CLASSIFICATION_TYPE":"U","NORAD_CAT_ID":56072,"ELEMENT_SET_NO":999,"REV_AT_EPOCH":13158,"BSTAR":0.00043844696,"MEAN_MOTION_DOT":1.78e-6,"MEAN_MOTION_DDOT":0},{"OBJECT_NAME":"ONEWEB-0632","OBJECT_ID":"2023-043AD","EPOCH":"2025-12-10T05:50:02.873184","MEAN_MOTION":13.15549597,"ECCENTRICITY":0.00019484,"INCLINATION":87.8986,"RA_OF_ASC_NODE":296.9218,"ARG_OF_PERICENTER":84.102,"MEAN_ANOMALY":276.0333,"EPHEMERIS_TYPE":0,"CLASSIFICATION_TYPE":"U","NORAD_CAT_ID":56073,"ELEMENT_SET_NO":999,"REV_AT_EPOCH":13158,"BSTAR":0.00046442944,"MEAN_MOTION_DOT":1.88e-6,"MEAN_MOTION_DDOT":0},{"OBJECT_NAME":"ONEWEB-0633","OBJECT_ID":"2023-043AE","EPOCH":"2025-12-10T07:30:27.326592","MEAN_MOTION":13.1554923,"ECCENTRICITY":0.00019836,"INCLINATION":87.8984,"RA_OF_ASC_NODE":296.871,"ARG_OF_PERICENTER":68.7076,"MEAN_ANOMALY":291.4266,"EPHEMERIS_TYPE":0,"CLASSIFICATION_TYPE":"U","NORAD_CAT_ID":56074,"ELEMENT_SET_NO":999,"REV_AT_EPOCH":13157,"BSTAR":0.00044161985,"MEAN_MOTION_DOT":1.79e-6,"MEAN_MOTION_DDOT":0},{"OBJECT_NAME":"ONEWEB-0634","OBJECT_ID":"2023-043AF","EPOCH":"2025-12-10T07:09:55.158048","MEAN_MOTION":13.15549315,"ECCENTRICITY":0.00015449,"INCLINATION":87.899,"RA_OF_ASC_NODE":296.9234,"ARG_OF_PERICENTER":72.918,"MEAN_ANOMALY":287.2119,"EPHEMERIS_TYPE":0,"CLASSIFICATION_TYPE":"U","NORAD_CAT_ID":56075,"ELEMENT_SET_NO":999,"REV_AT_EPOCH":13156,"BSTAR":2.505469e-5,"MEAN_MOTION_DOT":2.2e-7,"MEAN_MOTION_DDOT":0},{"OBJECT_NAME":"ONEWEB-0635","OBJECT_ID":"2023-043AG","EPOCH":"2025-12-10T07:03:02.852928","MEAN_MOTION":13.15550596,"ECCENTRICITY":0.0001955,"INCLINATION":87.8987,"RA_OF_ASC_NODE":296.8786,"ARG_OF_PERICENTER":87.3589,"MEAN_ANOMALY":272.7765,"EPHEMERIS_TYPE":0,"CLASSIFICATION_TYPE":"U","NORAD_CAT_ID":56076,"ELEMENT_SET_NO":999,"REV_AT_EPOCH":13159,"BSTAR":-0.00013651733,"MEAN_MOTION_DOT":-3.9e-7,"MEAN_MOTION_DDOT":0}]
