ONEWEB-0559             
1 56060U 23043Q   25344.26704115  .00000127  00000+0  27690-3 0  9999
2 56060  87.9216 281.6585 0002034  72.6587 287.4770 13.21824423133294
ONEWEB-0566             
1 56061U 23043R   25343.57920463  .00000098  00000+0  20542-3 0  9995
2 56061  87.9217 281.7939 0002001  69.1539 290.9809 13.21825044133182
ONEWEB-0568             
1 56062U 23043S   25344.31048475  .00000196  00000+0  47820-3 0  9990
2 56062  87.9046 266.3785 0001422  77.9772 282.1518 13.16595254134129
ONEWEB-0574             
1 56063U 23043T   25344.25389987  .00000145  00000+0  31838-3 0  9996
2 56063  87.9217 281.6472 0001860  82.9034 277.2312 13.21825457133310
ONEWEB-0575             
1 56064U 23043U   25344.22815599  .00000186  00000+0  45238-3 0  9991
2 56064  87.9043 266.3953 0001639  88.9332 271.1987 13.16595690134109
ONEWEB-0576             
1 56065U 23043V   25344.20915562  .00000055  00000+0  10980-3 0  9992
2 56065  87.9049 266.3996 0001675  82.8377 277.2944 13.16594200134099
ONEWEB-0577             
1 56066U 23043W   25344.21548617  .00000108  00000+0  24992-3 0  9994
2 56066  87.9047 266.3976 0002005  98.4827 261.6532 13.16594436134122
ONEWEB-0578             
1 56067U 23043X   25344.24072245  .00000175  00000+0  39284-3 0  9991
2 56067  87.9219 281.6601 0001542  79.5263 280.6045 13.21828020133278
ONEWEB-0579             
1 56068U 23043Y   25344.30655889  .00001600  00000+0  38426-2 0  9990
2 56068  87.9207 281.6368 0002433  71.5569 288.5830 13.21821177133294
ONEWEB-0581             
1 56069U 23043Z   25344.29782152  .00000047  00000+0  89619-4 0  9999
2 56069  87.9043 266.3950 0001936  86.6860 273.4493 13.16595099134102
ONEWEB-0609             
1 56070U 23043AA  25344.25736245  .00000185  00000+0  45804-3 0  9999
2 56070  87.8994 296.9172 0001787  76.3348 283.7981 13.15548812131590
ONEWEB-0613             
1 56071U 23043AB  25344.25260652  .00000082  00000+0  18468-3 0  9996
2 56071  87.8991 296.9304 0001980  73.3839 286.7509 13.15549356131595
ONEWEB-0630             
1 56072U 23043AC  25344.24784898  .00000178  00000+0  43845-3 0  9992
2 56072  87.8989 296.9028 0002032  73.9681 286.1673 13.15549514131587
ONEWEB-0632             
1 56073U 23043AD  25344.24308881  .00000188  00000+0  46443-3 0  9995
2 56073  87.8986 296.9218 0001948  84.1020 276.0333 13.15549597131584
ONEWEB-0633             
1 56074U 23043AE  25344.31281628  .00000179  00000+0  44162-3 0  9999
2 56074  87.8984 296.8710 0001983  68.7076 291.4266 13.15549230131576
ONEWEB-0634             
1 56075U 23043AF  25344.29855507  .00000022  00000+0  25055-4 0  9998
2 56075  87.8990 296.9234 0001544  72.9180 287.2119 13.15549315131565
ONEWEB-0635             
1 56076U 23043AG  25344.29378302 -.00000039  00000+0 -13652-3 0  9991
2 56076  87.8987 296.8786 0001955  87.3589 272.7765 13.15550596131594
